#dP2021  6 18 12  0  0.00000000      96 __u+U ITR00 EXT  IAC
## 2162 475200.00000000   900.00000000 59383 0.5000000000000
+  116   C06C07C08C09C10C11C12C13C14C16C19C20C21C22C23C24C25
+        C26C27C28C29C30C32C33C34C35C36C37C38C39C40C41C42C43
+        C44C45C46E01E02E03E04E05E07E08E09E11E12E13E14E15E18
+        E19E21E24E25E26E27E30E31E33E36G01G02G03G04G05G06G07
+        G08G09G10G12G13G14G15G16G17G18G19G20G21G22G23G24G25
+        G26G27G28G29G30G31G32J01J02J03R01R02R03R04R05R07R08
+        R09R11R12R13R14R15R16R17R18R19R20R21R22R24  0  0  0
++         9 10  8  9 13  7  8  9  9  9  8  8  9  9  7  7 10
++         8 10  9  9 10 10  8  7  9  9  8  8  8 10  9  9  8
++         9  9  8  7  7  8  8  8  9  8  7  7  8  9  8  8  9
++         8  8  9  8  7  8  7  9  9  9  7  7  8  9  6  7  8
++         7  8  7  7  6  8  8  7  6  7  8  7  8  8  9  8  7
++         7  7  7  8  7  7  7 11 10  9  9  6  7  7  8  8  8
++        11  9  9  8  8 10  7  9  9  9  8  8  8 10  0  0  0
%c M  cc GPS ccc cccc cccc cccc cccc ccccc ccccc ccccc ccccc
%c cc cc ccc ccc cccc cccc cccc cccc ccccc ccccc ccccc ccccc
%f  0.0000000  0.000000000  0.00000000000  0.000000000000000
%f  0.0000000  0.000000000  0.00000000000  0.000000000000000
%i    0    0    0    0      0      0      0      0         0
%i    0    0    0    0      0      0      0      0         0
/* IAC                                ULTRA-RAPID PREDICTION
/* S/V CLOCKS ARE ALIGNED TO GNSS TIME                      
/* G:C1WC2W R:C1PC2P E:C1XC5X C:C2IC6I J:C1CC2S             
/* PCV:IGS14_2148 OL/AL:FES2004  NONE     YN ORB:CoN CLK:CoN
*  2021 06 18 21 45  0.00000000
PC06 -21275.201741  35768.471086   5329.609240    519.413358
PC07  -7882.521938  31429.829095  27504.731507     59.278497
PC08 -17685.839146  18271.906246 -33635.841352   -895.464456
PC09 -10867.309725  35820.655599  19281.777633    438.144147
PC10   4768.819784  38018.535563  18327.591887    -28.346636
PC11  20040.564165 -19118.048535  -3169.252316    407.687954
PC12  20360.142843  -4747.524911 -18447.491610    839.836154
PC13  -3971.373833  22330.033217 -35459.795831    304.933327
PC14  10901.111469 -14009.878893  21543.842016    888.213759
PC16 -19658.736834  36471.567348   7309.296794   -907.570209
PC19  -4164.230293  22141.452474 -16453.560737    877.465792
PC20 -14817.479146   5642.972385 -22945.484233   -872.080601
PC21  17131.309618  15172.866632  16010.300943   -935.360999
PC22   9190.111735  26368.715227   -216.738004   -949.721632
PC23 -10283.642108 -16556.563834 -19961.053744   -940.165161
PC24  25797.097644  -2501.286894 -10320.622073   -899.203372
PC25  10000.328888 -14146.684487 -21875.707059   -898.937124
PC26  25827.926351   8675.241946   5950.077979    890.816986
PC27 -16186.775310  -4839.082000  22184.492495    550.500766
PC28   -885.457406 -19632.146794  19807.979885    -60.724900
PC29 -14013.443525  23426.569186  -5801.630154    407.936410
PC30 -21503.794931  13093.964857  12004.465885    471.147476
PC32 -17226.657353 -15041.294191 -15963.182546   -924.829473
PC33   4169.068420 -22082.077264  16539.252977   -937.368049
PC34  21534.324041 -13662.782554 -11370.372175   -647.372499
PC35   1313.739331  19815.273185 -19602.544366   -227.001462
PC36 -10737.149635  13770.289521  21795.824005   -728.056324
PC37 -25251.113849  -9769.893762  -6769.015248   -873.638561
PC38 -14831.275769  21465.819692 -33134.763361    156.149069
PC39 -16253.184765  37889.598466   8451.795732     31.869470
PC40   -573.708769  35311.747789  23170.467698    172.298040
PC41  -9018.614333 -26402.238904    606.143038   -948.970079
PC42  15217.162672  -4770.210373  22946.511636   -914.088964
PC43  14491.632414 -23275.542240   5247.961287   -782.554528
PC44  16356.430411   4542.889181 -22167.671222    246.325875
PC45  10460.230910  16425.889207  19990.814321    470.816054
PC46 -25360.680742   3194.132375  11244.878509    218.147721
PE01   3598.802668  20732.324219  20820.559890  -1132.105739
PE02  -3741.624445 -20781.506845 -20747.258673    227.040879
PE03   3316.130682 -29378.723940  -1233.984896   -443.416106
PE04   9628.977979  21625.504584  17785.385563   -795.270527
PE05  14516.665564 -19998.017466  16298.784868   -271.885218
PE07 -17121.103017   -907.267204 -24117.963363   -551.483001
PE08  -9810.589748 -21284.600442 -18063.570304   5983.867723
PE09  17010.169480    636.857278  24224.959057   5629.128591
PE11  27139.137118  -3019.473782 -11459.963263   5833.481019
PE12  13552.349409  11254.484332 -23797.207427   5153.457389
PE13 -26972.050098   2826.674280  11851.578797    417.921183
PE14  17474.634451 -18770.052476 -10978.457325  -1470.809265
PE15 -13572.909492 -11127.716053  23834.265838    808.087453
PE18  -8484.515362  28265.151636  -4065.597356  -1611.088426
PE19  -4844.538290  29186.957909   -930.442474    305.631393
PE21 -14548.327645   9207.680349  24078.081791   -671.434865
PE24  25149.610067   8896.579082 -12816.985403   -962.039166
PE25  14718.766714  -9034.088001 -24032.343850   -537.341553
PE26 -24036.452784  15388.053966  -7855.860923   1677.714382
PE27 -25053.213388  -8105.625778  13529.705942    -57.195136
PE30 -20046.185749 -20986.513658  -5852.708411   2852.711451
PE31  20746.184313  20537.404903   4914.106793   -482.349495
PE33  -7774.704844  18495.766899 -21761.295910   -468.969739
PE36  24470.727015 -15084.143077   7075.779173   -222.782478
PG01   4853.932132  14119.189090 -22250.077075    654.328930
PG02  18772.309676 -14401.968567  12776.240458   -613.378355
PG03  10575.968962  22371.620752  -9888.693656   -195.785536
PG04   1229.622035  22963.600494  13248.055353   -200.250017
PG05   1369.655714 -18171.729831  19103.908183    -45.346940
PG06  25611.775658  -6724.092256   2515.004259     28.632716
PG07  19331.116320   8492.553925  16765.303889    181.625716
PG08  -5396.871145  25550.461864  -3846.786464    -25.598699
PG09  10111.738368  14476.830010  19775.657492   -351.751392
PG10 -20440.682297  -7226.280082 -15407.302622   -145.024609
PG12  -7900.323175 -22980.198685 -11136.521022    -56.838641
PG13  13238.369539 -22779.995384   2558.586084    146.618346
PG14  20160.927626   7656.130147 -15537.419304     66.399203
PG15   2137.718342 -25961.162314  -4468.770409   -141.454632
PG16  -7709.935592  13737.857442  21059.137907   -343.428503
PG17  15622.296731  -1085.222112 -21027.441261    460.579269
PG18 -21405.008892  -6321.185051  14440.877150    346.064580
PG19  17530.807667  -9788.785668 -17604.355256     15.145774
PG20   2609.562606 -17144.729614  20141.361664    521.037329
PG21  -3709.774638  15794.792045 -20224.288786    125.901881
PG22   3791.976237  20309.028113 -16616.092517   -585.074645
PG23 -20404.169665 -15963.339688  -6004.553948     95.290384
PG24     61.479026 -16247.170931 -21213.212574    138.457946
PG25 -17204.037022 -20419.884040   -827.974089    158.312538
PG26 -15537.494763   5633.947546  20778.823952    100.080782
PG27 -12236.058252  22387.629065   6479.008088   -149.329714
PG28  17745.465907   2459.360502 -18997.638685    552.379526
PG29  -7708.943486 -15734.233197  19892.782801   -366.336020
PG30  26026.132605    -39.378043   5963.366247   -440.617208
PG31 -25135.130744   7861.407053   4931.942741   -123.825241
PG32 -16454.052985   4283.791664 -20246.947860     17.973219
PJ01 -20526.975950  26956.084078 -20533.363489   -398.401969
PJ02 -26744.505957  21012.302536  29853.345717     -0.311500
PJ03 -33478.019086  25562.912505   5905.388438     -8.468491
PR01   6923.240670 -14896.564159  19514.096649     81.074515
PR02  -2774.763842 -25308.635863   2048.903978    482.876184
PR03  -9872.159959 -18436.211505 -14594.446122     37.942717
PR04 -11066.369207  -1303.347953 -22914.527533     91.909066
PR05  -6251.719444  16492.696281 -18403.717922     73.806478
PR07  10066.566475  17812.642488  15246.516937    -42.294872
PR08  11208.718340   1156.941161  22941.781476    -59.577620
PR09   6337.171438  13310.270986  20855.545291     -1.396207
PR11  23572.814092   4289.798932  -8760.143058    -13.267704
PR12  12224.208679  -6269.018120 -21460.222507    238.294236
PR13  -5620.796759 -12916.665709 -21277.042950    -56.440331
PR14 -20897.934398 -12146.356789  -8106.242354     65.492675
PR15 -23377.939928  -4248.837366   9295.167203    103.175521
PR16 -11248.926728   7211.242040  21734.346598    -16.546382
PR17  -9172.047389  -6069.327098  23019.020962    433.805664
PR18 -19528.040214   6867.997216  14875.387119     80.508456
PR19 -20328.026634  15408.052341   -382.945294   -148.256410
PR20  -7822.894652  15949.373022 -18285.778050    -51.088197
PR21  10071.644965   5163.671126 -22863.779111   -217.535778
PR22  19964.653778  -7595.806489 -14037.785579   -118.365734
PR24   6715.358986 -16158.616800  18563.129633     47.070703
EOF
